start=new Date('2022-04-18T00:00:00.000Z').valueOf();
sats=[{"PERIOD":"95.439","COUNTRY_CODE":"US","MEAN_MOTION_DOT":"0.00038655","REF_FRAME":"TEME","TLE_LINE2":"2 50198  53.2174 141.6920 0001916  43.1157  42.2006 15.08824052  3583","CENTER_NAME":"EARTH","MEAN_MOTION":"15.08824052","BSTAR":"0.00243460000000","TIME_SYSTEM":"UTC","LAUNCH_DATE":"2021-12-18","APOAPSIS":"541.120","NORAD_CAT_ID":"50198","REV_AT_EPOCH":"358","SEMIMAJOR_AXIS":"6917.929","ARG_OF_PERICENTER":"43.1157","RA_OF_ASC_NODE":"141.6920","OBJECT_TYPE":"PAYLOAD","EPHEMERIS_TYPE":"0","TLE_LINE1":"1 50198U 21125AU  22107.91667824  .00038655  00000-0  24346-2 0  9997","EPOCH":"2022-04-17T22:00:00.999936","CLASSIFICATION_TYPE":"U","SITE":"AFWTR","RCS_SIZE":"LARGE","OBJECT_NAME":"STARLINK-3264","ELEMENT_SET_NO":"999","INCLINATION":"53.2174","MEAN_ELEMENT_THEORY":"SGP4","FILE":"3405839","DECAY_DATE":null,"GP_ID":"201497414","PERIAPSIS":"538.469","MEAN_ANOMALY":"42.2006","ECCENTRICITY":"0.00019160","MEAN_MOTION_DDOT":"0.0000000000000","OBJECT_ID":"2021-125AU"},{"PERIOD":"95.440","COUNTRY_CODE":"US","MEAN_MOTION_DOT":"0.00036840","REF_FRAME":"TEME","TLE_LINE2":"2 50199  53.2117 141.7095 0001835  39.0193 146.3450 15.08798786  3627","CENTER_NAME":"EARTH","MEAN_MOTION":"15.08798786","BSTAR":"0.00232330000000","LAUNCH_DATE":"2021-12-18","TIME_SYSTEM":"UTC","APOAPSIS":"541.141","NORAD_CAT_ID":"50199","SEMIMAJOR_AXIS":"6918.006","REV_AT_EPOCH":"362","ARG_OF_PERICENTER":"39.0193","RA_OF_ASC_NODE":"141.7095","OBJECT_TYPE":"PAYLOAD","EPHEMERIS_TYPE":"0","TLE_LINE1":"1 50199U 21125AV  22107.91667824  .00036840  00000-0  23233-2 0  9996","EPOCH":"2022-04-17T22:00:00.999936","CLASSIFICATION_TYPE":"U","SITE":"AFWTR","RCS_SIZE":"LARGE","OBJECT_NAME":"STARLINK-3270","ELEMENT_SET_NO":"999","INCLINATION":"53.2117","MEAN_ELEMENT_THEORY":"SGP4","DECAY_DATE":null,"FILE":"3405839","GP_ID":"201498154","PERIAPSIS":"538.602","MEAN_ANOMALY":"146.3450","ECCENTRICITY":"0.00018350","MEAN_MOTION_DDOT":"0.0000000000000","OBJECT_ID":"2021-125AV"},{"OBJECT_ID":"2021-125AW","MEAN_MOTION_DDOT":"0.0000000000000","ECCENTRICITY":"0.00019870","MEAN_ANOMALY":"2.9304","PERIAPSIS":"538.427","GP_ID":"201496413","DECAY_DATE":null,"FILE":"3405839","MEAN_ELEMENT_THEORY":"SGP4","INCLINATION":"53.2157","ELEMENT_SET_NO":"999","OBJECT_NAME":"STARLINK-3235","RCS_SIZE":"LARGE","SITE":"AFWTR","CLASSIFICATION_TYPE":"U","EPOCH":"2022-04-17T22:00:00.999936","TLE_LINE1":"1 50200U 21125AW  22107.91667824  .00039794  00000-0  25056-2 0  9995","EPHEMERIS_TYPE":"0","OBJECT_TYPE":"PAYLOAD","ARG_OF_PERICENTER":"42.4560","RA_OF_ASC_NODE":"141.6931","SEMIMAJOR_AXIS":"6917.937","REV_AT_EPOCH":"359","NORAD_CAT_ID":"50200","APOAPSIS":"541.177","LAUNCH_DATE":"2021-12-18","TIME_SYSTEM":"UTC","BSTAR":"0.00250560000000","MEAN_MOTION":"15.08821499","CENTER_NAME":"EARTH","TLE_LINE2":"2 50200  53.2157 141.6931 0001987  42.4560   2.9304 15.08821499  3595","REF_FRAME":"TEME","MEAN_MOTION_DOT":"0.00039794","COUNTRY_CODE":"US","PERIOD":"95.439"},{"TLE_LINE1":"1 50201U 21125AX  22107.91667824  .00037802  00000-0  23820-2 0  9991","EPOCH":"2022-04-17T22:00:00.999936","OBJECT_TYPE":"PAYLOAD","RA_OF_ASC_NODE":"141.6913","ARG_OF_PERICENTER":"47.9341","EPHEMERIS_TYPE":"0","RCS_SIZE":"LARGE","OBJECT_NAME":"STARLINK-3255","CLASSIFICATION_TYPE":"U","SITE":"AFWTR","MEAN_ELEMENT_THEORY":"SGP4","INCLINATION":"53.2174","GP_ID":"201496663","DECAY_DATE":null,"FILE":"3405839","ELEMENT_SET_NO":"999","MEAN_MOTION_DDOT":"0.0000000000000","ECCENTRICITY":"0.00019880","OBJECT_ID":"2021-125AX","PERIAPSIS":"538.440","MEAN_ANOMALY":"57.4413","MEAN_MOTION_DOT":"0.00037802","REF_FRAME":"TEME","PERIOD":"95.439","COUNTRY_CODE":"US","CENTER_NAME":"EARTH","TLE_LINE2":"2 50201  53.2174 141.6913 0001988  47.9341  57.4413 15.08817053  3589","BSTAR":"0.00238200000000","MEAN_MOTION":"15.08817053","SEMIMAJOR_AXIS":"6917.951","REV_AT_EPOCH":"358","TIME_SYSTEM":"UTC","LAUNCH_DATE":"2021-12-18","NORAD_CAT_ID":"50201","APOAPSIS":"541.191"},{"TLE_LINE2":"2 50202  53.2129 141.7084 0001881  42.3645 162.9752 15.08814919  3584","CENTER_NAME":"EARTH","PERIOD":"95.439","COUNTRY_CODE":"US","MEAN_MOTION_DOT":"0.00035264","REF_FRAME":"TEME","LAUNCH_DATE":"2021-12-18","TIME_SYSTEM":"UTC","APOAPSIS":"541.123","NORAD_CAT_ID":"50202","REV_AT_EPOCH":"358","SEMIMAJOR_AXIS":"6917.957","MEAN_MOTION":"15.08814919","BSTAR":"0.00222420000000","CLASSIFICATION_TYPE":"U","SITE":"AFWTR","RCS_SIZE":"LARGE","OBJECT_NAME":"STARLINK-3256","RA_OF_ASC_NODE":"141.7084","ARG_OF_PERICENTER":"42.3645","OBJECT_TYPE":"PAYLOAD","EPHEMERIS_TYPE":"0","EPOCH":"2022-04-17T22:00:00.999936","TLE_LINE1":"1 50202U 21125AY  22107.91667824  .00035264  00000-0  22242-2 0  9999","PERIAPSIS":"538.521","MEAN_ANOMALY":"162.9752","ECCENTRICITY":"0.00018810","MEAN_MOTION_DDOT":"0.0000000000000","OBJECT_ID":"2021-125AY","ELEMENT_SET_NO":"999","INCLINATION":"53.2129","MEAN_ELEMENT_THEORY":"SGP4","FILE":"3405839","DECAY_DATE":null,"GP_ID":"201497906"},{"TLE_LINE2":"2 50203  53.2177 141.6924 0001912  47.0684  18.3171 15.08817493  3590","CENTER_NAME":"EARTH","PERIOD":"95.439","COUNTRY_CODE":"US","MEAN_MOTION_DOT":"0.00038965","REF_FRAME":"TEME","LAUNCH_DATE":"2021-12-18","TIME_SYSTEM":"UTC","NORAD_CAT_ID":"50203","APOAPSIS":"541.137","SEMIMAJOR_AXIS":"6917.949","REV_AT_EPOCH":"359","MEAN_MOTION":"15.08817493","BSTAR":"0.00245430000000","CLASSIFICATION_TYPE":"U","SITE":"AFWTR","RCS_SIZE":"LARGE","OBJECT_NAME":"STARLINK-3257","OBJECT_TYPE":"PAYLOAD","RA_OF_ASC_NODE":"141.6924","ARG_OF_PERICENTER":"47.0684","EPHEMERIS_TYPE":"0","EPOCH":"2022-04-17T22:00:00.999936","TLE_LINE1":"1 50203U 21125AZ  22107.91667824  .00038965  00000-0  24543-2 0  9997","PERIAPSIS":"538.491","MEAN_ANOMALY":"18.3171","MEAN_MOTION_DDOT":"0.0000000000000","ECCENTRICITY":"0.00019120","OBJECT_ID":"2021-125AZ","ELEMENT_SET_NO":"999","MEAN_ELEMENT_THEORY":"SGP4","INCLINATION":"53.2177","GP_ID":"201497663","DECAY_DATE":null,"FILE":"3405839"},{"SITE":"AFWTR","CLASSIFICATION_TYPE":"U","OBJECT_NAME":"STARLINK-3254","RCS_SIZE":"LARGE","EPHEMERIS_TYPE":"0","ARG_OF_PERICENTER":"42.3268","RA_OF_ASC_NODE":"141.6901","OBJECT_TYPE":"PAYLOAD","EPOCH":"2022-04-17T22:00:00.999936","TLE_LINE1":"1 50204U 21125BA  22107.91667824  .00036030  00000-0  22715-2 0  9998","MEAN_ANOMALY":"122.9918","PERIAPSIS":"538.653","OBJECT_ID":"2021-125BA","ECCENTRICITY":"0.00016590","MEAN_MOTION_DDOT":"0.0000000000000","ELEMENT_SET_NO":"999","DECAY_DATE":null,"FILE":"3405839","GP_ID":"201496905","INCLINATION":"53.2160","MEAN_ELEMENT_THEORY":"SGP4","TLE_LINE2":"2 50204  53.2160 141.6901 0001659  42.3268 122.9918 15.08821972  3590","CENTER_NAME":"EARTH","COUNTRY_CODE":"US","PERIOD":"95.439","REF_FRAME":"TEME","MEAN_MOTION_DOT":"0.00036030","NORAD_CAT_ID":"50204","APOAPSIS":"540.948","TIME_SYSTEM":"UTC","LAUNCH_DATE":"2021-12-18","REV_AT_EPOCH":"359","SEMIMAJOR_AXIS":"6917.935","MEAN_MOTION":"15.08821972","BSTAR":"0.00227150000000"},{"MEAN_ANOMALY":"259.7251","PERIAPSIS":"345.152","OBJECT_ID":"2021-125BB","MEAN_MOTION_DDOT":"0.0000000000000","ECCENTRICITY":"0.00068710","ELEMENT_SET_NO":"999","GP_ID":"201497155","FILE":"3405839","DECAY_DATE":null,"MEAN_ELEMENT_THEORY":"SGP4","INCLINATION":"53.2128","SITE":"AFWTR","CLASSIFICATION_TYPE":"U","OBJECT_NAME":"STARLINK-3260","RCS_SIZE":"LARGE","EPHEMERIS_TYPE":"0","OBJECT_TYPE":"PAYLOAD","ARG_OF_PERICENTER":"297.7700","RA_OF_ASC_NODE":"126.0982","TLE_LINE1":"1 50205U 21125BB  22107.91667824  .00101194  00000-0  71611-3 0  9993","EPOCH":"2022-04-17T22:00:00.999936","APOAPSIS":"354.398","NORAD_CAT_ID":"50205","TIME_SYSTEM":"UTC","LAUNCH_DATE":"2021-12-18","SEMIMAJOR_AXIS":"6727.910","REV_AT_EPOCH":"367","MEAN_MOTION":"15.73194749","BSTAR":"0.00071611000000","TLE_LINE2":"2 50205  53.2128 126.0982 0006871 297.7700 259.7251 15.73194749  3674","CENTER_NAME":"EARTH","COUNTRY_CODE":"US","PERIOD":"91.533","REF_FRAME":"TEME","MEAN_MOTION_DOT":"0.00101194"},{"ELEMENT_SET_NO":"999","DECAY_DATE":null,"FILE":"3405839","GP_ID":"201497415","INCLINATION":"53.2158","MEAN_ELEMENT_THEORY":"SGP4","MEAN_ANOMALY":"100.9749","PERIAPSIS":"538.628","OBJECT_ID":"2021-125BC","ECCENTRICITY":"0.00016960","MEAN_MOTION_DDOT":"0.0000000000000","EPHEMERIS_TYPE":"0","ARG_OF_PERICENTER":"44.3500","RA_OF_ASC_NODE":"141.6899","OBJECT_TYPE":"PAYLOAD","TLE_LINE1":"1 50206U 21125BC  22107.91667824  .00036313  00000-0  22891-2 0  9999","EPOCH":"2022-04-17T22:00:00.999936","SITE":"AFWTR","CLASSIFICATION_TYPE":"U","OBJECT_NAME":"STARLINK-3258","RCS_SIZE":"LARGE","MEAN_MOTION":"15.08821747","BSTAR":"0.00228910000000","APOAPSIS":"540.974","NORAD_CAT_ID":"50206","TIME_SYSTEM":"UTC","LAUNCH_DATE":"2021-12-18","REV_AT_EPOCH":"359","SEMIMAJOR_AXIS":"6917.936","COUNTRY_CODE":"US","PERIOD":"95.439","REF_FRAME":"TEME","MEAN_MOTION_DOT":"0.00036313","TLE_LINE2":"2 50206  53.2158 141.6899 0001696  44.3500 100.9749 15.08821747  3595","CENTER_NAME":"EARTH"},{"CENTER_NAME":"EARTH","TLE_LINE2":"2 50207  53.2156 141.6910 0001805  38.2763  87.0461 15.08821538  3586","MEAN_MOTION_DOT":"0.00036951","REF_FRAME":"TEME","PERIOD":"95.439","COUNTRY_CODE":"US","SEMIMAJOR_AXIS":"6917.937","REV_AT_EPOCH":"358","LAUNCH_DATE":"2021-12-18","TIME_SYSTEM":"UTC","APOAPSIS":"541.051","NORAD_CAT_ID":"50207","BSTAR":"0.00232880000000","MEAN_MOTION":"15.08821538","RCS_SIZE":"LARGE","OBJECT_NAME":"STARLINK-3262","CLASSIFICATION_TYPE":"U","SITE":"AFWTR","TLE_LINE1":"1 50207U 21125BD  22107.91667824  .00036951  00000-0  23288-2 0  9999","EPOCH":"2022-04-17T22:00:00.999936","ARG_OF_PERICENTER":"38.2763","RA_OF_ASC_NODE":"141.6910","OBJECT_TYPE":"PAYLOAD","EPHEMERIS_TYPE":"0","ECCENTRICITY":"0.00018050","MEAN_MOTION_DDOT":"0.0000000000000","OBJECT_ID":"2021-125BD","PERIAPSIS":"538.553","MEAN_ANOMALY":"87.0461","INCLINATION":"53.2156","MEAN_ELEMENT_THEORY":"SGP4","DECAY_DATE":null,"FILE":"3405839","GP_ID":"201498155","ELEMENT_SET_NO":"999"}];
